H1 CPF 01  gfz 2022 09 04 12  7472 terrasarx 
H2 0702601  6201 31698    2022 09 04 12 59 42 2022 09 09 00 00 42   120 1 1  0 0 0
H9
10 0 59827  76302.000000  0   -4265071.713   3945625.854   3691617.979
10 0 59827  76422.000000  0   -4449597.840   4381191.206   2900271.002
10 0 59827  76542.000000  0   -4549340.827   4742630.508   2057844.501
10 0 59827  76662.000000  0   -4563919.610   5022133.685   1179173.179
10 0 59827  76782.000000  0   -4494579.734   5213345.646    279734.877
10 0 59827  76902.000000  0   -4344146.715   5311509.066   -624629.099
10 0 59827  77022.000000  0   -4116946.597   5313576.917  -1518003.355
10 0 59827  77142.000000  0   -3818693.884   5218286.624  -2384688.594
10 0 59827  77262.000000  0   -3456353.466   5026200.146  -3209483.930
10 0 59827  77382.000000  0   -3037978.847   4739705.444  -3977958.450
10 0 59827  77502.000000  0   -2572531.850   4362981.140  -4676703.072
10 0 59827  77622.000000  0   -2069688.975   3901927.492  -5293559.328
10 0 59827  77742.000000  0   -1539639.911   3364066.916  -5817823.175
10 0 59827  77862.000000  0    -992881.164   2758413.893  -6240422.223
10 0 59827  77982.000000  0    -440009.125   2095317.514  -6554061.700
10 0 59827  78102.000000  0     108482.282   1386282.089  -6753338.448
10 0 59827  78222.000000  0     642395.770    643768.192  -6834824.634
10 0 59827  78342.000000  0    1152016.057   -119022.633  -6797121.161
10 0 59827  78462.000000  0    1628282.725   -888378.410  -6640878.232
10 0 59827  78582.000000  0    2062946.860  -1650316.859  -6368784.209
10 0 59827  78702.000000  0    2448711.575  -2390832.847  -5985524.667
10 0 59827  78822.000000  0    2779353.901  -3096150.440  -5497711.419
10 0 59827  78942.000000  0    3049827.502  -3752978.967  -4913780.294
10 0 59827  79062.000000  0    3256342.013  -4348764.869  -4243854.032
10 0 59827  79182.000000  0    3396417.325  -4871933.351  -3499577.070
10 0 59827  79302.000000  0    3468914.349  -5312119.380  -2693923.442
10 0 59827  79422.000000  0    3474039.109  -5660382.227  -1840975.668
10 0 59827  79542.000000  0    3413319.432  -5909394.764   -955679.611
10 0 59827  79662.000000  0    3289554.794  -6053605.138    -53579.792
10 0 59827  79782.000000  0    3106738.354  -6089363.730    849460.070
10 0 59827  79902.000000  0    2869954.980  -6015013.654   1737543.188
10 0 59827  80022.000000  0    2585257.115  -5830940.904   2595030.097
10 0 59827  80142.000000  0    2259520.087  -5539581.394   3406822.439
10 0 59827  80262.000000  0    1900282.660  -5145387.583   4158634.173
10 0 59827  80382.000000  0    1515576.743  -4654755.841   4837247.027
10 0 59827  80502.000000  0    1113750.992  -4075915.265   5430744.016
10 0 59827  80622.000000  0     703290.999  -3418781.113   5928718.659
10 0 59827  80742.000000  0     292640.508  -2694775.194   6322452.308
10 0 59827  80862.000000  0    -109970.818  -1916621.032   6605059.622
10 0 59827  80982.000000  0    -496690.304  -1098116.977   6771602.442
10 0 59827  81102.000000  0    -860193.978   -253890.047   6819172.100
10 0 59827  81222.000000  0   -1193824.198    600866.489   6746937.329
10 0 59827  81342.000000  0   -1491711.123   1450666.209   6556157.519
10 0 59827  81462.000000  0   -1748875.816   2280009.163   6250162.096
10 0 59827  81582.000000  0   -1961314.104   3073664.365   5834296.177
10 0 59827  81702.000000  0   -2126059.266   3816950.667   5315832.300
10 0 59827  81822.000000  0   -2241223.091   4496011.653   4703850.394
10 0 59827  81942.000000  0   -2306014.752   5098080.485   4009084.585
10 0 59827  82062.000000  0   -2320736.235   5611728.145   3243738.758
10 0 59827  82182.000000  0   -2286754.518   6027088.965   2421272.790
10 0 59827  82302.000000  0   -2206450.869   6336058.379   1556164.396
10 0 59827  82422.000000  0   -2083148.006   6532458.565    663649.872
10 0 59827  82542.000000  0   -1921016.959   6612167.049   -240550.804
10 0 59827  82662.000000  0   -1724966.379   6573205.244  -1140519.183
10 0 59827  82782.000000  0   -1500516.236   6415784.069  -2020430.021
10 0 59827  82902.000000  0   -1253658.586   6142300.298  -2864839.207
10 0 59827  83022.000000  0    -990711.370   5757290.041  -3658957.959
10 0 59827  83142.000000  0    -718168.609   5267343.222  -4388912.581
10 0 59827  83262.000000  0    -442550.511   4680978.480  -5041984.736
10 0 59827  83382.000000  0    -170256.479   4008484.006  -5606827.122
10 0 59827  83502.000000  0      92575.806   3261727.208  -6073653.007
10 0 59827  83622.000000  0     340201.699   2453936.929  -6434395.319
10 0 59827  83742.000000  0     567388.279   1599465.232  -6682833.863
10 0 59827  83862.000000  0     769519.611    713533.135  -6814692.690
10 0 59827  83982.000000  0     942686.262   -188037.379  -6827705.765
10 0 59827  84102.000000  0    1083757.946  -1089100.839  -6721651.314
10 0 59827  84222.000000  0    1190438.259  -1973470.155  -6498353.394
10 0 59827  84342.000000  0    1261301.427  -2825198.940  -6161654.179
10 0 59827  84462.000000  0    1295811.051  -3628863.897  -5717357.124
10 0 59827  84582.000000  0    1294318.547  -4369843.852  -5173136.892
10 0 59827  84702.000000  0    1258043.240  -5034586.644  -4538416.720
10 0 59827  84822.000000  0    1189033.600  -5610861.961  -3824217.162
10 0 59827  84942.000000  0    1090109.122  -6087995.565  -3042973.929
10 0 59827  85062.000000  0     964785.022  -6457077.828  -2208327.890
10 0 59827  85182.000000  0     817181.099  -6711142.765  -1334890.044
10 0 59827  85302.000000  0     651915.779  -6845311.615   -437984.361
10 0 59827  85422.000000  0     473988.156  -6856895.904    466625.727
10 0 59827  85542.000000  0     288651.219  -6745458.101   1363020.885
10 0 59827  85662.000000  0     101279.270  -6512827.919   2235414.763
10 0 59827  85782.000000  0     -82767.056  -6163072.237   3068442.178
10 0 59827  85902.000000  0    -258274.668  -5702417.668   3847438.486
10 0 59827  86022.000000  0    -420307.704  -5139130.777   4558701.395
10 0 59827  86142.000000  0    -564329.117  -4483360.798   5189734.311
10 0 59827  86262.000000  0    -686311.208  -3746946.839   5729465.232
10 0 59827  86382.000000  0    -782833.123  -2943194.308   6168438.970
10 0 59828    102.000000  0    -851162.952  -2086625.238   6498976.327
10 0 59828    222.000000  0    -889322.911  -1192711.927   6715300.658
10 0 59828    342.000000  0    -896137.122   -277595.794   6813634.128
10 0 59828    462.000000  0    -871261.386    642205.130   6792260.089
10 0 59828    582.000000  0    -815192.841   1550094.064   6651551.248
10 0 59828    702.000000  0    -729259.790   2429694.385   6393963.446
10 0 59828    822.000000  0    -615592.537   3265144.720   6023995.527
10 0 59828    942.000000  0    -477075.830   4041386.453   5548115.686
10 0 59828   1062.000000  0    -317283.299   4744438.398   4974653.754
10 0 59828   1182.000000  0    -140395.014   5361655.065   4313662.353
10 0 59828   1302.000000  0      48900.707   5881962.643   3576743.608
10 0 59828   1422.000000  0     245517.978   6296064.813   2776850.698
10 0 59828   1542.000000  0     444095.258   6596624.784   1928060.875
10 0 59828   1662.000000  0     639126.998   6778403.196   1045320.574
10 0 59828   1782.000000  0     825099.331   6838354.860    144176.308
10 0 59828   1902.000000  0     996627.941   6775682.499   -759507.138
10 0 59828   2022.000000  0    1148592.973   6591844.667  -1649834.836
10 0 59828   2142.000000  0    1276267.857   6290519.071  -2511168.766
10 0 59828   2262.000000  0    1375439.467   5877522.265  -3328408.736
10 0 59828   2382.000000  0    1442516.780   5360687.373  -4087260.858
10 0 59828   2502.000000  0    1474625.457   4749703.556  -4774487.852
10 0 59828   2622.000000  0    1469685.963   4055921.834  -5378135.711
10 0 59828   2742.000000  0    1426473.534   3292134.340  -5887733.724
10 0 59828   2862.000000  0    1344659.304   2472330.696  -6294466.816
10 0 59828   2982.000000  0    1224831.490   1611437.135  -6591315.817
10 0 59828   3102.000000  0    1068497.522    725045.593  -6773167.616
10 0 59828   3222.000000  0     878066.547   -170865.729  -6836894.797
10 0 59828   3342.000000  0     656812.617  -1060215.413  -6781402.918
10 0 59828   3462.000000  0     408819.128  -1927100.345  -6607645.604
10 0 59828   3582.000000  0     138906.203  -2756071.457  -6318610.150
10 0 59828   3702.000000  0    -147459.732  -3532404.461  -5919273.953
10 0 59828   3822.000000  0    -444272.192  -4242359.557  -5416526.718
10 0 59828   3942.000000  0    -745104.415  -4873425.306  -4819062.770
10 0 59828   4062.000000  0   -1043242.291  -5414544.498  -4137242.399
10 0 59828   4182.000000  0   -1331827.825  -5856316.615  -3382922.348
10 0 59828   4302.000000  0   -1604009.829  -6191171.856  -2569257.403
10 0 59828   4422.000000  0   -1853098.833  -6413513.134  -1710476.059
10 0 59828   4542.000000  0   -2072722.595  -6519822.212   -821632.383
10 0 59828   4662.000000  0   -2256978.126  -6508725.618     81661.438
10 0 59828   4782.000000  0   -2400576.640  -6381017.481    983515.937
10 0 59828   4902.000000  0   -2498977.276  -6139638.558   1868052.260
10 0 59828   5022.000000  0   -2548505.983  -5789611.695   2719690.999
10 0 59828   5142.000000  0   -2546456.142  -5337935.125   3523435.068
10 0 59828   5262.000000  0   -2491168.297  -4793436.825   4265139.973
10 0 59828   5382.000000  0   -2382087.698  -4166594.595   4931765.973
10 0 59828   5502.000000  0   -2219799.023  -3469326.395   5511608.529
10 0 59828   5622.000000  0   -2006036.178  -2714754.317   5994501.921
10 0 59828   5742.000000  0   -1743667.222  -1916950.933   6371992.243
10 0 59828   5862.000000  0   -1436655.761  -1090672.812   6637480.138
10 0 59828   5982.000000  0   -1090000.085   -251083.678   6786330.101
10 0 59828   6102.000000  0    -709651.792    586524.359   6815944.702
10 0 59828   6222.000000  0    -302413.807   1407008.147   6725807.887
10 0 59828   6342.000000  0     124181.346   2195647.028   6517493.705
99
